[{"OBJECT_NAME":"STARLINK-31127","OBJECT_ID":"2024-011A","EPOCH":"2026-03-09T01:28:46.323264","MEAN_MOTION":15.30195738,"ECCENTRICITY":0.00012128,"INCLINATION":53.1633,"RA_OF_ASC_NODE":16.6302,"ARG_OF_PERICENTER":93.1699,"MEAN_ANOMALY":266.944,"EPHEMERIS_TYPE":0,"CLASSIFICATION_TYPE":"U","NORAD_CAT_ID":58765,"ELEMENT_SET_NO":999,"REV_AT_EPOCH":12017,"BSTAR":4.6352502e-5,"MEAN_MOTION_DOT":1.014e-5,"MEAN_MOTION_DDOT":0},{"OBJECT_NAME":"KUIPER-00276","OBJECT_ID":"2026-030AG","EPOCH":"2026-03-09T22:00:01.999584","MEAN_MOTION":15.30162454,"ECCENTRICITY":0.00186471,"INCLINATION":51.8824,"RA_OF_ASC_NODE":218.7283,"ARG_OF_PERICENTER":66.9346,"MEAN_ANOMALY":101.1527,"EPHEMERIS_TYPE":0,"CLASSIFICATION_TYPE":"U","NORAD_CAT_ID":67794,"ELEMENT_SET_NO":999,"REV_AT_EPOCH":482,"BSTAR":0.0021152378,"MEAN_MOTION_DOT":0.00063116,"MEAN_MOTION_DDOT":0}]
